{
  "type": "FeatureCollection",
  "features": [
    {
      "type": "Feature",
      "properties": {
        "name": "LOCAL GOVERNMENT",
        "description": {
          "@type": "html",
          "value": "<html xmlns:fo=\"http://www.w3.org/1999/XSL/Format\" xmlns:msxsl=\"urn:schemas-microsoft-com:xslt\">\r\r\n<head>\r\r\n<META http-equiv=\"Content-Type\" content=\"text/html\">\r\r\n<meta http-equiv=\"content-type\" content=\"text/html; charset=UTF-8\">\r\r\n</head>\r\r\n<body style=\"margin:0px 0px 0px 0px;overflow:auto;background:#FFFFFF;\">\r\r\n<table style=\"font-family:Arial,Verdana,Times;font-size:12px;text-align:left;width:100%;border-collapse:collapse;padding:3px 3px 3px 3px\">\r\r\n<tr style=\"text-align:center;font-weight:bold;background:#9CBCE2\">\r\r\n<td>LOCAL GOVERNMENT</td>\r\r\n</tr>\r\r\n<tr>\r\r\n<td>\r\r\n<table style=\"font-family:Arial,Verdana,Times;font-size:12px;text-align:left;width:100%;border-spacing:0px; padding:3px 3px 3px 3px\">\r\r\n<tr>\r\r\n<td>objectid</td>\r\r\n<td>70</td>\r\r\n</tr>\r\r\n<tr bgcolor=\"#D4E4F3\">\r\r\n<td>shape</td>\r\r\n<td>Polygon</td>\r\r\n</tr>\r\r\n<tr>\r\r\n<td>admintypename</td>\r\r\n<td>LOCAL GOVERNMENT</td>\r\r\n</tr>\r\r\n<tr bgcolor=\"#D4E4F3\">\r\r\n<td>adminareaname</td>\r\r\n<td>TORRES STRAIT ISLAND REGIONAL</td>\r\r\n</tr>\r\r\n<tr>\r\r\n<td>lga_code</td>\r\r\n<td>6960</td>\r\r\n</tr>\r\r\n<tr bgcolor=\"#D4E4F3\">\r\r\n<td>abbrev_name</td>\r\r\n<td>TORRES STRAIT ISLAND</td>\r\r\n</tr>\r\r\n<tr>\r\r\n<td>lga</td>\r\r\n<td>Torres Strait Island Regional</td>\r\r\n</tr>\r\r\n<tr bgcolor=\"#D4E4F3\">\r\r\n<td>ca_area_sqkm</td>\r\r\n<td>480.908755</td>\r\r\n</tr>\r\r\n<tr>\r\r\n<td>shape_Length</td>\r\r\n<td>3.170533</td>\r\r\n</tr>\r\r\n<tr bgcolor=\"#D4E4F3\">\r\r\n<td>shape_Area</td>\r\r\n<td>0.039641</td>\r\r\n</tr>\r\r\n</table>\r\r\n</td>\r\r\n</tr>\r\r\n</table>\r\r\n</body><script type=\"text/javascript\">\r\r\n\t\t\t\tfunction changeImage(attElement, nameElement) {\r\r\n\t\t\t\tdocument.getElementById('imageAttachment').src = attElement;\r\r\n\t\t\t\tdocument.getElementById('imageName').innerHTML = nameElement;}\r\r\n\t\t\t</script></html>\r\r\n"
        },
        "styleUrl": "#PolyStyle00",
        "fill-opacity": 1,
        "fill": "#fcd2e8",
        "stroke-opacity": 1,
        "stroke": "#6e6e6e",
        "stroke-width": 0.7,
        "label-opacity": 0,
        "label-color": "#000000",
        "label-scale": 0,
        "__sourceKml": "doc.kml",
        "__largeImport": true,
        "__largeImportMode": "optimized"
      },
      "geometry": {
        "type": "MultiPolygon",
        "coordinates": [
          [
            [
              [
                137.99465,
                -16.53944
              ],
              [
                137.99906,
                -25.99685
              ],
              [
                140.9994,
                -25.99638
              ],
              [
                140.99927,
                -28.99909
              ],
              [
                148.9581,
                -28.99905
              ],
              [
                148.97172,
                -28.97828
              ],
              [
                149.03188,
                -28.95659
              ],
              [
                149.08069,
                -28.84187
              ],
              [
                149.12788,
                -28.83552
              ],
              [
                149.13957,
                -28.80672
              ],
              [
                149.1792,
                -28.80302
              ],
              [
                149.18863,
                -28.7751
              ],
              [
                149.22463,
                -28.76464
              ],
              [
                149.24535,
                -28.73895
              ],
              [
                149.26933,
                -28.74325
              ],
              [
                149.29676,
                -28.70973
              ],
              [
                149.31843,
                -28.71388
              ],
              [
                149.35858,
                -28.68405
              ],
              [
                149.3875,
                -28.69616
              ],
              [
                149.45249,
                -28.59484
              ],
              [
                149.50331,
                -28.57436
              ],
              [
                149.58725,
                -28.57336
              ],
              [
                149.61097,
                -28.60108
              ],
              [
                149.62545,
                -28.59354
              ],
              [
                149.6618,
                -28.61042
              ],
              [
                149.66674,
                -28.63212
              ],
              [
                149.70397,
                -28.6339
              ],
              [
                149.72119,
                -28.60941
              ],
              [
                149.97726,
                -28.61355
              ],
              [
                150.01537,
                -28.58053
              ],
              [
                150.08005,
                -28.58427
              ],
              [
                150.09222,
                -28.56405
              ],
              [
                150.13847,
                -28.56544
              ],
              [
                150.15254,
                -28.55018
              ],
              [
                150.21259,
                -28.57429
              ],
              [
                150.29007,
                -28.53718
              ],
              [
                150.35058,
                -28.57504
              ],
              [
                150.37015,
                -28.62112
              ],
              [
                150.41482,
                -28.63423
              ],
              [
                150.41289,
                -28.65041
              ],
              [
                150.44216,
                -28.66428
              ],
              [
                150.52458,
                -28.65447
              ],
              [
                150.53929,
                -28.66004
              ],
              [
                150.52747,
                -28.66932
              ],
              [
                150.55103,
                -28.67159
              ],
              [
                150.5539,
                -28.65328
              ],
              [
                150.63224,
                -28.67708
              ],
              [
                150.67343,
                -28.65045
              ],
              [
                150.68138,
                -28.66166
              ],
              [
                150.75127,
                -28.63424
              ],
              [
                150.87407,
                -28.69438
              ],
              [
                150.90744,
                -28.68851
              ],
              [
                150.93843,
                -28.73123
              ],
              [
                151.00993,
                -28.74093
              ],
              [
                151.02823,
                -28.76196
              ],
              [
                151.02409,
                -28.79347
              ],
              [
                151.04271,
                -28.80158
              ],
              [
                151.04441,
                -28.84388
              ],
              [
                151.10333,
                -28.83657
              ],
              [
                151.27417,
                -28.9379
              ],
              [
                151.28411,
                -29.00681
              ],
              [
                151.27168,
                -29.03038
              ],
              [
                151.29055,
                -29.05108
              ],
              [
                151.27514,
                -29.07641
              ],
              [
                151.28047,
                -29.10214
              ],
              [
                151.31801,
                -29.13804
              ],
              [
                151.3156,
                -29.16608
              ],
              [
                151.39412,
                -29.17802
              ],
              [
                151.50278,
                -29.06985
              ],
              [
                151.4901,
                -29.05656
              ],
              [
                151.4978,
                -29.02087
              ],
              [
                151.54483,
                -28.95327
              ],
              [
                151.60979,
                -28.92344
              ],
              [
                151.63519,
                -28.92956
              ],
              [
                151.70637,
                -28.87171
              ],
              [
                151.73387,
                -28.87144
              ],
              [
                151.74245,
                -28.91849
              ],
              [
                151.77334,
                -28.93806
              ],
              [
                151.7769,
                -28.95899
              ],
              [
                151.80691,
                -28.94528
              ],
              [
                151.83067,
                -28.96173
              ],
              [
                151.84978,
                -28.90761
              ],
              [
                151.91632,
                -28.92933
              ],
              [
                151.99632,
                -28.89478
              ],
              [
                152.0107,
                -28.90667
              ],
              [
                152.03755,
                -28.86434
              ],
              [
                152.03757,
                -28.85163
              ],
              [
                152.01492,
                -28.85022
              ],
              [
                152.03661,
                -28.81778
              ],
              [
                152.0423,
                -28.73182
              ],
              [
                152.07604,
                -28.70833
              ],
              [
                152.06645,
                -28.68118
              ],
              [
                152.0105,
                -28.66497
              ],
              [
                151.98594,
                -28.58212
              ],
              [
                151.95734,
                -28.56473
              ],
              [
                151.95536,
                -28.51918
              ],
              [
                151.98263,
                -28.50332
              ],
              [
                151.9888,
                -28.5256
              ],
              [
                152.01671,
                -28.52522
              ],
              [
                152.06969,
                -28.46852
              ],
              [
                152.12125,
                -28.46264
              ],
              [
                152.16008,
                -28.43325
              ],
              [
                152.21724,
                -28.4491
              ],
              [
                152.30937,
                -28.36283
              ],
              [
                152.38798,
                -28.36745
              ],
              [
                152.41637,
                -28.33499
              ],
              [
                152.41518,
                -28.29806
              ],
              [
                152.44295,
                -28.29841
              ],
              [
                152.46346,
                -28.25921
              ],
              [
                152.50754,
                -28.24899
              ],
              [
                152.53398,
                -28.26268
              ],
              [
                152.52592,
                -28.30596
              ],
              [
                152.57951,
                -28.33919
              ],
              [
                152.61425,
                -28.26946
              ],
              [
                152.63975,
                -28.31217
              ],
              [
                152.66752,
                -28.31169
              ],
              [
                152.75096,
                -28.36387
              ],
              [
                152.77739,
                -28.34595
              ],
              [
                152.80426,
                -28.35356
              ],
              [
                152.83137,
                -28.31966
              ],
              [
                152.88043,
                -28.3098
              ],
              [
                152.93427,
                -28.33764
              ],
              [
                153.04491,
                -28.339
              ],
              [
                153.10766,
                -28.35848
              ],
              [
                153.12501,
                -28.31775
              ],
              [
                153.16774,
                -28.29546
              ],
              [
                153.17667,
                -28.24959
              ],
              [
                153.23284,
                -28.26506
              ],
              [
                153.2796,
                -28.23348
              ],
              [
                153.35729,
                -28.24926
              ],
              [
                153.47695,
                -28.15688
              ],
              [
                153.53465,
                -28.17763
              ],
              [
                153.55195,
                -28.16448
              ],
              [
                153.51099,
                -28.15871
              ],
              [
                153.45148,
                -28.08649
              ],
              [
                153.42482,
                -27.90513
              ],
              [
                153.47204,
                -27.60968
              ],
              [
                153.54407,
                -27.42556
              ],
              [
                153.48452,
                -27.4163
              ],
              [
                153.45389,
                -27.38809
              ],
              [
                153.21774,
                -27.44839
              ],
              [
                153.21659,
                -27.46823
              ],
              [
                153.20344,
                -27.46803
              ],
              [
                153.18684,
                -27.45677
              ],
              [
                153.19722,
                -27.44363
              ],
              [
                153.17668,
                -27.43382
              ],
              [
                153.19663,
                -27.42465
              ],
              [
                153.1884,
                -27.40828
              ],
              [
                153.1646,
                -27.40012
              ],
              [
                153.19695,
                -27.41623
              ],
              [
                153.18827,
                -27.37281
              ],
              [
                153.20219,
                -27.35288
              ],
              [
                153.18885,
                -27.34545
              ],
              [
                153.17386,
                -27.3669
              ],
              [
                153.155,
                -27.36308
              ],
              [
                153.07083,
                -27.30727
              ],
              [
                153.08091,
                -27.26142
              ],
              [
                153.10992,
                -27.25688
              ],
              [
                153.11495,
                -27.19172
              ],
              [
                153.08883,
                -27.20616
              ],
              [
                153.03783,
                -27.19689
              ],
              [
                153.02971,
                -27.18276
              ],
              [
                153.0725,
                -27.10657
              ],
              [
                153.11858,
                -27.08495
              ],
              [
                153.19201,
                -27.09817
              ],
              [
                153.20739,
                -27.0793
              ],
              [
                153.16753,
                -27.0024
              ],
              [
                153.13086,
                -26.87556
              ],
              [
                153.13182,
                -26.8096
              ],
              [
                153.1508,
                -26.80173
              ],
              [
                153.13654,
                -26.77353
              ],
              [
                153.13899,
                -26.67957
              ],
              [
                153.10524,
                -26.66154
              ],
              [
                153.0919,
                -26.51781
              ],
              [
                153.11976,
                -26.37919
              ],
              [
                153.08043,
                -26.38125
              ],
              [
                153.06138,
                -26.32566
              ],
              [
                153.10701,
                -26.12249
              ],
              [
                153.19151,
                -25.93258
              ],
              [
                153.16937,
                -25.94965
              ],
              [
                153.14125,
                -25.94629
              ],
              [
                153.0871,
                -25.89214
              ],
              [
                153.06971,
                -25.81137
              ],
              [
                153.0883,
                -25.7609
              ],
              [
                153.07804,
                -25.67034
              ],
              [
                153.14252,
                -25.47486
              ],
              [
                153.36034,
                -25.0058
              ],
              [
                153.35063,
                -24.96338
              ],
              [
                153.29897,
                -24.94506
              ],
              [
                153.26631,
                -24.88042
              ],
              [
                153.26281,
                -24.68045
              ],
              [
                152.7209,
                -22.36402
              ],
              [
                152.73876,
                -22.28718
              ],
              [
                152.76672,
                -22.24297
              ],
              [
                152.76645,
                -22.14519
              ],
              [
                152.73425,
                -21.99994
              ],
              [
                152.67616,
                -21.90071
              ],
              [
                152.65228,
                -21.81601
              ],
              [
                152.56005,
                -21.66733
              ],
              [
                152.55439,
                -21.55755
              ],
              [
                152.58595,
                -21.43954
              ],
              [
                152.58895,
                -21.31519
              ],
              [
                152.65355,
                -21.23646
              ],
              [
                152.67774,
                -21.15324
              ],
              [
                152.65234,
                -21.06504
              ],
              [
                152.59589,
                -21.02669
              ],
              [
                152.40052,
                -21.00468
              ],
              [
                152.23607,
                -20.96214
              ],
              [
                152.18358,
                -20.93681
              ],
              [
                152.09061,
                -20.85463
              ],
              [
                152.05523,
                -20.86503
              ],
              [
                152.04278,
                -20.89086
              ],
              [
                152.04074,
                -20.98514
              ],
              [
                152.11614,
                -21.12647
              ],
              [
                152.12049,
                -21.16021
              ],
              [
                152.0957,
                -21.18765
              ],
              [
                152.04282,
                -21.20842
              ],
              [
                151.89132,
                -21.20112
              ],
              [
                151.85009,
                -21.17545
              ],
              [
                151.76854,
                -21.06761
              ],
              [
                151.59812,
                -20.99301
              ],
              [
                151.52808,
                -20.9346
              ],
              [
                151.40017,
                -20.87455
              ],
              [
                151.18934,
                -20.72878
              ],
              [
                151.03452,
                -20.66587
              ],
              [
                150.85167,
                -20.56068
              ],
              [
                150.63037,
                -20.29884
              ],
              [
                150.56232,
                -20.16625
              ],
              [
                150.40492,
                -20.02414
              ],
              [
                150.38362,
                -19.94947
              ],
              [
                150.32052,
                -19.9138
              ],
              [
                150.2913,
                -19.87299
              ],
              [
                150.23461,
                -19.85039
              ],
              [
                150.19217,
                -19.78776
              ],
              [
                150.01236,
                -19.70306
              ],
              [
                149.95017,
                -19.64822
              ],
              [
                149.87935,
                -19.62346
              ],
              [
                149.65207,
                -19.46157
              ],
              [
                149.42093,
                -19.33373
              ],
              [
                149.09764,
                -19.21403
              ],
              [
                148.96643,
                -19.1829
              ],
              [
                148.91592,
                -19.10656
              ],
              [
                148.70088,
                -19.07152
              ],
              [
                148.43337,
                -18.98079
              ],
              [
                148.16384,
                -18.85096
              ],
              [
                148.06636,
                -18.83765
              ],
              [
                147.98401,
                -18.79475
              ],
              [
                147.86992,
                -18.69488
              ],
              [
                147.61513,
                -18.60929
              ],
              [
                147.55229,
                -18.4609
              ],
              [
                147.53068,
                -18.4349
              ],
              [
                147.46257,
                -18.4047
              ],
              [
                147.39539,
                -18.25615
              ],
              [
                147.04334,
                -18.18536
              ],
              [
                146.88513,
                -18.04771
              ],
              [
                146.87713,
                -18.01639
              ],
              [
                146.86189,
                -18.01864
              ],
              [
                146.84722,
                -17.99062
              ],
              [
                146.80114,
                -17.96269
              ],
              [
                146.79753,
                -17.92074
              ],
              [
                146.74671,
                -17.8776
              ],
              [
                146.68764,
                -17.78118
              ],
              [
                146.72158,
                -17.67442
              ],
              [
                146.68427,
                -17.58099
              ],
              [
                146.55364,
                -17.42004
              ],
              [
                146.5634,
                -17.37564
              ],
              [
                146.53447,
                -17.32096
              ],
              [
                146.55713,
                -17.30202
              ],
              [
                146.5403,
                -17.25541
              ],
              [
                146.5519,
                -17.18726
              ],
              [
                146.51431,
                -17.09718
              ],
              [
                146.46942,
                -17.04663
              ],
              [
                146.46947,
                -17.03035
              ],
              [
                146.52926,
                -16.99007
              ],
              [
                146.45983,
                -16.94839
              ],
              [
                146.4063,
                -16.86729
              ],
              [
                146.35716,
                -16.85446
              ],
              [
                146.35572,
                -16.80296
              ],
              [
                146.28115,
                -16.7789
              ],
              [
                146.28134,
                -16.73515
              ],
              [
                146.25642,
                -16.68679
              ],
              [
                146.16645,
                -16.60898
              ],
              [
                146.08241,
                -16.42413
              ],
              [
                145.92242,
                -16.33422
              ],
              [
                145.91409,
                -16.31632
              ],
              [
                145.89099,
                -16.24497
              ],
              [
                145.91117,
                -16.19285
              ],
              [
                145.88836,
                -16.17419
              ],
              [
                145.86508,
                -16.11494
              ],
              [
                145.86936,
                -16.04385
              ],
              [
                145.82865,
                -15.97036
              ],
              [
                145.81711,
                -15.8575
              ],
              [
                145.82797,
                -15.82406
              ],
              [
                145.79661,
                -15.75437
              ],
              [
                145.81729,
                -15.63693
              ],
              [
                145.79417,
                -15.57902
              ],
              [
                145.81114,
                -15.47234
              ],
              [
                145.74876,
                -15.25527
              ],
              [
                145.7526,
                -15.20334
              ],
              [
                145.72546,
                -15.11532
              ],
              [
                145.73568,
                -15.06834
              ],
              [
                145.70426,
                -14.95273
              ],
              [
                145.73189,
                -14.85216
              ],
              [
                145.69942,
                -14.70576
              ],
              [
                145.63386,
                -14.61803
              ],
              [
                145.62648,
                -14.58197
              ],
              [
                145.53803,
                -14.47563
              ],
              [
                145.48513,
                -14.43173
              ],
              [
                145.4274,
                -14.42685
              ],
              [
                145.40247,
                -14.38193
              ],
              [
                145.35904,
                -14.35597
              ],
              [
                145.27631,
                -14.3365
              ],
              [
                145.24137,
                -14.30102
              ],
              [
                145.13219,
                -14.27577
              ],
              [
                145.05639,
                -14.23184
              ],
              [
                144.962,
                -14.22435
              ],
              [
                144.9321,
                -14.19316
              ],
              [
                144.86694,
                -14.18209
              ],
              [
                144.78641,
                -14.0883
              ],
              [
                144.77612,
                -14.05413
              ],
              [
                144.78582,
                -14.01624
              ],
              [
                144.69441,
                -13.98865
              ],
              [
                144.65177,
                -13.92071
              ],
              [
                144.60521,
                -13.91432
              ],
              [
                144.5707,
                -13.96151
              ],
              [
                144.47386,
                -13.9769
              ],
              [
                144.365,
                -13.92364
              ],
              [
                144.35518,
                -13.88409
              ],
              [
                144.27424,
                -13.79001
              ],
              [
                144.25632,
                -13.73868
              ],
              [
                144.1091,
                -13.616
              ],
              [
                144.11649,
                -13.54627
              ],
              [
                144.09623,
                -13.54376
              ],
              [
                144.09517,
                -13.50653
              ],
              [
                144.06492,
                -13.49386
              ],
              [
                144.0727,
                -13.45434
              ],
              [
                144.0164,
                -13.47475
              ],
              [
                143.98546,
                -13.44334
              ],
              [
                143.99315,
                -13.4146
              ],
              [
                143.96765,
                -13.36227
              ],
              [
                143.99549,
                -13.33056
              ],
              [
                143.95215,
                -13.28317
              ],
              [
                143.95437,
                -13.25907
              ],
              [
                143.98142,
                -13.23482
              ],
              [
                143.95093,
                -13.16369
              ],
              [
                143.98205,
                -13.11403
              ],
              [
                143.96229,
                -13.08528
              ],
              [
                143.96603,
                -13.05519
              ],
              [
                143.94272,
                -13.07036
              ],
              [
                143.90195,
                -13.06691
              ],
              [
                143.83597,
                -12.97474
              ],
              [
                143.82337,
                -12.89894
              ],
              [
                143.82875,
                -12.86897
              ],
              [
                143.85604,
                -12.84873
              ],
              [
                143.85117,
                -12.82339
              ],
              [
                143.81068,
                -12.78916
              ],
              [
                143.81552,
                -12.75853
              ],
              [
                143.8343,
                -12.74861
              ],
              [
                143.81412,
                -12.71343
              ],
              [
                143.86228,
                -12.6862
              ],
              [
                143.84775,
                -12.63552
              ],
              [
                143.79684,
                -12.57586
              ],
              [
                143.80095,
                -12.52209
              ],
              [
                143.75324,
                -12.42214
              ],
              [
                143.83722,
                -12.3352
              ],
              [
                143.8765,
                -12.34976
              ],
              [
                143.88749,
                -12.29971
              ],
              [
                143.90571,
                -12.29981
              ],
              [
                143.93885,
                -12.26419
              ],
              [
                143.92838,
                -12.24036
              ],
              [
                143.9511,
                -12.21273
              ],
              [
                143.97317,
                -12.0448
              ],
              [
                143.99912,
                -11.9695
              ],
              [
                144.01877,
                -11.95381
              ],
              [
                144.02766,
                -11.84183
              ],
              [
                144.09065,
                -11.8293
              ],
              [
                144.06018,
                -11.75221
              ],
              [
                144.10001,
                -11.74997
              ],
              [
                144.09733,
                -11.71417
              ],
              [
                144.03549,
                -11.70141
              ],
              [
                144.01903,
                -11.66422
              ],
              [
                144.05693,
                -11.59885
              ],
              [
                144.06615,
                -11.52019
              ],
              [
                144.08682,
                -11.51207
              ],
              [
                144.08203,
                -11.45213
              ],
              [
                143.96588,
                -11.37263
              ],
              [
                143.96591,
                -11.33208
              ],
              [
                143.99891,
                -11.2934
              ],
              [
                144.06093,
                -11.29186
              ],
              [
                144.07644,
                -11.23734
              ],
              [
                144.0619,
                -11.16683
              ],
              [
                144.08198,
                -11.1342
              ],
              [
                144.04251,
                -11.03805
              ],
              [
                144.01368,
                -11.01289
              ],
              [
                144.04484,
                -10.99975
              ],
              [
                144.02531,
                -10.83189
              ],
              [
                143.98103,
                -10.6836
              ],
              [
                143.94142,
                -10.60836
              ],
              [
                143.92328,
                -10.49932
              ],
              [
                143.94054,
                -10.46908
              ],
              [
                143.9329,
                -10.45274
              ],
              [
                143.95375,
                -10.44388
              ],
              [
                143.95022,
                -10.32591
              ],
              [
                143.97883,
                -10.20606
              ],
              [
                144.00087,
                -10.19487
              ],
              [
                144.02442,
                -10.11684
              ],
              [
                144.08629,
                -10.02918
              ],
              [
                144.15866,
                -9.96833
              ],
              [
                144.18473,
                -9.87953
              ],
              [
                144.25478,
                -9.84661
              ],
              [
                144.25112,
                -9.4986
              ],
              [
                143.80111,
                -9.36515
              ],
              [
                143.5011,
                -9.3985
              ],
              [
                143.33445,
                -9.54849
              ],
              [
                143.343,
                -9.49032
              ],
              [
                143.29705,
                -9.45965
              ],
              [
                143.24039,
                -9.49001
              ],
              [
                143.24862,
                -9.54849
              ],
              [
                143.08445,
                -9.54849
              ],
              [
                143.00112,
                -9.66516
              ],
              [
                142.38446,
                -9.69849
              ],
              [
                142.00113,
                -9.76516
              ],
              [
                141.00257,
                -10.37496
              ],
              [
                141.00115,
                -14.76515
              ],
              [
                141.57536,
                -14.7654
              ],
              [
                141.59464,
                -14.86619
              ],
              [
                141.66646,
                -15.00224
              ],
              [
                141.65132,
                -15.08151
              ],
              [
                141.64387,
                -15.07201
              ],
              [
                141.62966,
                -15.10528
              ],
              [
                141.63301,
                -15.16083
              ],
              [
                141.58131,
                -15.20716
              ],
              [
                141.56664,
                -15.30236
              ],
              [
                141.47305,
                -15.52165
              ],
              [
                141.43622,
                -15.66119
              ],
              [
                141.41262,
                -15.85526
              ],
              [
                141.3792,
                -15.91964
              ],
              [
                141.43295,
                -16.07271
              ],
              [
                141.34811,
                -16.22607
              ],
              [
                141.32112,
                -16.34562
              ],
              [
                141.28821,
                -16.40816
              ],
              [
                141.30442,
                -16.48426
              ],
              [
                141.26994,
                -16.56028
              ],
              [
                141.25357,
                -16.55521
              ],
              [
                141.23848,
                -16.58036
              ],
              [
                141.20422,
                -16.69208
              ],
              [
                141.13721,
                -16.77216
              ],
              [
                141.09128,
                -16.79577
              ],
              [
                141.0527,
                -16.8882
              ],
              [
                140.95889,
                -16.99848
              ],
              [
                140.94623,
                -17.04222
              ],
              [
                140.95023,
                -17.15181
              ],
              [
                140.91379,
                -17.23225
              ],
              [
                140.88364,
                -17.38178
              ],
              [
                140.84562,
                -17.43762
              ],
              [
                140.77009,
                -17.47803
              ],
              [
                140.73874,
                -17.51548
              ],
              [
                140.71086,
                -17.50963
              ],
              [
                140.67987,
                -17.5272
              ],
              [
                140.5897,
                -17.59839
              ],
              [
                140.38844,
                -17.67507
              ],
              [
                140.08994,
                -17.72318
              ],
              [
                139.99262,
                -17.71186
              ],
              [
                139.94469,
                -17.67235
              ],
              [
                139.93912,
                -17.63227
              ],
              [
                139.84755,
                -17.59618
              ],
              [
                139.83376,
                -17.60538
              ],
              [
                139.83965,
                -17.58956
              ],
              [
                139.82044,
                -17.56942
              ],
              [
                139.75213,
                -17.57742
              ],
              [
                139.7245,
                -17.55382
              ],
              [
                139.64624,
                -17.53957
              ],
              [
                139.47418,
                -17.40243
              ],
              [
                139.41296,
                -17.37423
              ],
              [
                139.30481,
                -17.3663
              ],
              [
                139.23734,
                -17.32265
              ],
              [
                139.20388,
                -17.28502
              ],
              [
                139.15582,
                -17.17076
              ],
              [
                139.13959,
                -17.08788
              ],
              [
                139.15623,
                -17.03005
              ],
              [
                139.09068,
                -17.00553
              ],
              [
                139.03861,
                -16.9479
              ],
              [
                139.03783,
                -16.91328
              ],
              [
                138.9817,
                -16.89008
              ],
              [
                138.84706,
                -16.86998
              ],
              [
                138.63108,
                -16.76939
              ],
              [
                138.4812,
                -16.78478
              ],
              [
                138.36333,
                -16.74166
              ],
              [
                138.31797,
                -16.74733
              ],
              [
                138.15797,
                -16.68118
              ],
              [
                137.99465,
                -16.53944
              ]
            ]
          ],
          [
            [
              [
                139.13936,
                -16.75061
              ],
              [
                139.1617,
                -16.749
              ],
              [
                139.186,
                -16.71992
              ],
              [
                139.18271,
                -16.67436
              ],
              [
                139.14556,
                -16.69357
              ],
              [
                139.13936,
                -16.75061
              ]
            ]
          ],
          [
            [
              [
                139.15004,
                -16.63446
              ],
              [
                139.16254,
                -16.66614
              ],
              [
                139.19318,
                -16.66425
              ],
              [
                139.19964,
                -16.70819
              ],
              [
                139.22073,
                -16.68753
              ],
              [
                139.20946,
                -16.70802
              ],
              [
                139.22926,
                -16.73268
              ],
              [
                139.31222,
                -16.73094
              ],
              [
                139.34978,
                -16.69141
              ],
              [
                139.34713,
                -16.67547
              ],
              [
                139.37396,
                -16.68771
              ],
              [
                139.36562,
                -16.67767
              ],
              [
                139.38172,
                -16.65779
              ],
              [
                139.36367,
                -16.60453
              ],
              [
                139.39053,
                -16.61215
              ],
              [
                139.37784,
                -16.62159
              ],
              [
                139.4142,
                -16.67077
              ],
              [
                139.44852,
                -16.66738
              ],
              [
                139.43558,
                -16.63201
              ],
              [
                139.46494,
                -16.62962
              ],
              [
                139.47228,
                -16.61528
              ],
              [
                139.45739,
                -16.57281
              ],
              [
                139.48836,
                -16.55884
              ],
              [
                139.50618,
                -16.57798
              ],
              [
                139.51532,
                -16.55655
              ],
              [
                139.46646,
                -16.53005
              ],
              [
                139.53034,
                -16.51759
              ],
              [
                139.55815,
                -16.46758
              ],
              [
                139.59412,
                -16.55533
              ],
              [
                139.65717,
                -16.52022
              ],
              [
                139.71194,
                -16.53197
              ],
              [
                139.69793,
                -16.51972
              ],
              [
                139.6982,
                -16.47963
              ],
              [
                139.67004,
                -16.46221
              ],
              [
                139.6784,
                -16.45381
              ],
              [
                139.64317,
                -16.44604
              ],
              [
                139.60425,
                -16.4045
              ],
              [
                139.55092,
                -16.3908
              ],
              [
                139.46451,
                -16.44659
              ],
              [
                139.36371,
                -16.45287
              ],
              [
                139.37026,
                -16.46872
              ],
              [
                139.30366,
                -16.46385
              ],
              [
                139.24124,
                -16.50531
              ],
              [
                139.21139,
                -16.56934
              ],
              [
                139.15004,
                -16.63446
              ]
            ]
          ],
          [
            [
              [
                139.39381,
                -17.08371
              ],
              [
                139.41538,
                -17.12573
              ],
              [
                139.43318,
                -17.10074
              ],
              [
                139.4747,
                -17.09301
              ],
              [
                139.47793,
                -17.11653
              ],
              [
                139.50824,
                -17.12035
              ],
              [
                139.52129,
                -17.10406
              ],
              [
                139.57857,
                -17.09397
              ],
              [
                139.5518,
                -17.0565
              ],
              [
                139.55674,
                -17.0342
              ],
              [
                139.4918,
                -16.97947
              ],
              [
                139.49048,
                -17.01996
              ],
              [
                139.45793,
                -17.03053
              ],
              [
                139.42383,
                -17.079
              ],
              [
                139.39381,
                -17.08371
              ]
            ]
          ],
          [
            [
              [
                141.36215,
                -9.83024
              ],
              [
                141.38145,
                -9.8695
              ],
              [
                141.42536,
                -9.88069
              ],
              [
                141.47385,
                -9.85598
              ],
              [
                141.4873,
                -9.81599
              ],
              [
                141.46497,
                -9.77839
              ],
              [
                141.41977,
                -9.77072
              ],
              [
                141.37718,
                -9.79084
              ],
              [
                141.36215,
                -9.83024
              ]
            ]
          ],
          [
            [
              [
                141.48109,
                -9.53467
              ],
              [
                141.51493,
                -9.58704
              ],
              [
                141.51597,
                -9.64674
              ],
              [
                141.54198,
                -9.66666
              ],
              [
                141.57717,
                -9.6676
              ],
              [
                141.62373,
                -9.62743
              ],
              [
                141.61775,
                -9.57458
              ],
              [
                141.6521,
                -9.53425
              ],
              [
                141.6544,
                -9.48642
              ],
              [
                141.62349,
                -9.45127
              ],
              [
                141.55738,
                -9.44781
              ],
              [
                141.50251,
                -9.48842
              ],
              [
                141.48109,
                -9.53467
              ]
            ]
          ],
          [
            [
              [
                142.05946,
                -9.26044
              ],
              [
                142.08019,
                -9.30687
              ],
              [
                142.13183,
                -9.33187
              ],
              [
                142.27426,
                -9.34758
              ],
              [
                142.33052,
                -9.31945
              ],
              [
                142.34577,
                -9.26622
              ],
              [
                142.21613,
                -9.18793
              ],
              [
                142.10807,
                -9.21239
              ],
              [
                142.05946,
                -9.26044
              ]
            ]
          ],
          [
            [
              [
                142.12692,
                -9.54569
              ],
              [
                142.15904,
                -9.59302
              ],
              [
                142.2034,
                -9.5918
              ],
              [
                142.31596,
                -9.62948
              ],
              [
                142.36354,
                -9.61866
              ],
              [
                142.38948,
                -9.57717
              ],
              [
                142.38149,
                -9.54328
              ],
              [
                142.351,
                -9.51662
              ],
              [
                142.2023,
                -9.48465
              ],
              [
                142.15078,
                -9.49931
              ],
              [
                142.12692,
                -9.54569
              ]
            ]
          ],
          [
            [
              [
                142.47192,
                -9.40919
              ],
              [
                142.48713,
                -9.46175
              ],
              [
                142.51879,
                -9.48526
              ],
              [
                142.58534,
                -9.45983
              ],
              [
                142.76769,
                -9.4861
              ],
              [
                142.81842,
                -9.4584
              ],
              [
                142.85176,
                -9.37663
              ],
              [
                142.8383,
                -9.34111
              ],
              [
                142.80611,
                -9.32238
              ],
              [
                142.5925,
                -9.35543
              ],
              [
                142.55889,
                -9.37432
              ],
              [
                142.49561,
                -9.3661
              ],
              [
                142.47192,
                -9.40919
              ]
            ]
          ],
          [
            [
              [
                143.78362,
                -9.17211
              ],
              [
                143.80249,
                -9.21209
              ],
              [
                143.8477,
                -9.22133
              ],
              [
                143.92419,
                -9.18361
              ],
              [
                143.93837,
                -9.13012
              ],
              [
                143.91043,
                -9.09528
              ],
              [
                143.86318,
                -9.09063
              ],
              [
                143.79804,
                -9.13779
              ],
              [
                143.78362,
                -9.17211
              ]
            ]
          ],
          [
            [
              [
                144.07387,
                -9.35785
              ],
              [
                144.09573,
                -9.4013
              ],
              [
                144.1636,
                -9.41356
              ],
              [
                144.20368,
                -9.45769
              ],
              [
                144.25937,
                -9.4615
              ],
              [
                144.29413,
                -9.42479
              ],
              [
                144.28452,
                -9.36947
              ],
              [
                144.23943,
                -9.3345
              ],
              [
                144.18939,
                -9.33992
              ],
              [
                144.16463,
                -9.3161
              ],
              [
                144.11931,
                -9.3056
              ],
              [
                144.08778,
                -9.32206
              ],
              [
                144.07387,
                -9.35785
              ]
            ]
          ],
          [
            [
              [
                153.22341,
                -27.39022
              ],
              [
                153.24106,
                -27.39803
              ],
              [
                153.23691,
                -27.37298
              ],
              [
                153.22341,
                -27.39022
              ]
            ]
          ],
          [
            [
              [
                153.22471,
                -27.4196
              ],
              [
                153.24087,
                -27.4373
              ],
              [
                153.24118,
                -27.41956
              ],
              [
                153.22471,
                -27.4196
              ]
            ]
          ],
          [
            [
              [
                153.2358,
                -27.33482
              ],
              [
                153.25472,
                -27.35017
              ],
              [
                153.26488,
                -27.3334
              ],
              [
                153.24772,
                -27.32332
              ],
              [
                153.2358,
                -27.33482
              ]
            ]
          ],
          [
            [
              [
                153.36194,
                -27.13561
              ],
              [
                153.36612,
                -27.20255
              ],
              [
                153.4294,
                -27.36199
              ],
              [
                153.44146,
                -27.33188
              ],
              [
                153.4197,
                -27.27836
              ],
              [
                153.41944,
                -27.20428
              ],
              [
                153.46795,
                -27.02774
              ],
              [
                153.37547,
                -27.04892
              ],
              [
                153.36194,
                -27.13561
              ]
            ]
          ]
        ]
      }
    }
  ]
}
